STARLINK-2657           
1 48655U 21044T   23327.83870006  .00004392  00000+0  31362-3 0  9993
2 48655  53.0550 278.3920 0001740 104.8319 255.2863 15.06393992138412
STARLINK-2701           
1 48656U 21044U   23327.83500972 -.00002642  00000+0 -15859-3 0  9997
2 48656  53.0536 278.4045 0001596 105.3495 254.7671 15.06389891138410
STARLINK-2734           
1 48657U 21044V   23327.20004369 -.00000162  00000+0  80482-5 0  9998
2 48657  53.0531 280.8948 0001325  94.1499 265.9642 15.06389745137480
STARLINK-2647           
1 48658U 21044W   23327.29686344  .00003974  00000+0  28551-3 0  9997
2 48658  53.0541 280.8189 0001488  96.5250 263.5908 15.06404199138391
STARLINK-2717           
1 48659U 21044X   23327.29317614  .00007663  00000+0  53269-3 0  9992
2 48659  53.0544 280.8374 0001604 113.2704 246.8454 15.06408442137497
STARLINK-2688           
1 48660U 21044Y   23327.28948765  .00002401  00000+0  18000-3 0  9999
2 48660  53.0531 280.8487 0001576 106.6317 253.4845 15.06402678137497
STARLINK-2708           
1 48661U 21044Z   23327.22406258  .00006467  00000+0  45267-3 0  9991
2 48661  53.0540 271.1495 0001559  90.0828 270.0340 15.06395366137629
STARLINK-2726           
1 48662U 21044AA  23327.22037854 -.00002901  00000+0 -17598-3 0  9991
2 48662  53.0549 271.1624 0001525  88.0768 272.0396 15.06393705137624
STARLINK-2667           
1 48663U 21044AB  23327.28303819 -.00001822  00000+0 -10347-3 0  9991
2 48663  53.0539 270.8846 0001631  96.4327 263.6848 15.06394738137634
STARLINK-2709           
1 48664U 21044AC  23327.27935476  .00004361  00000+0  31154-3 0  9999
2 48664  53.0550 270.9001 0001607  84.4624 275.6549 15.06396447137632
STARLINK-2653           
1 48665U 21044AD  23327.82393886 -.00005857  00000+0 -37499-3 0  9995
2 48665  53.0544 268.4545 0001498 111.1042 249.0108 15.06363882138613
STARLINK-2666           
1 48666U 21044AE  23327.17252537 -.00003551  00000+0 -21973-3 0  9990
2 48666  53.0537 271.8549 0001624  75.8311 284.2858 15.06382622137608
STARLINK-2735           
1 48667U 21044AF  23327.14297083  .00001307  00000+0  10666-3 0  9995
2 48667  53.0539 271.5129 0001598  87.8621 272.2551 15.06393011137611
STARLINK-2738           
1 48668U 21044AG  23327.27200866  .00017422  00000+0  11859-2 0  9992
2 48668  53.0549 270.9306 0002337 127.7251 232.3950 15.06389597137634
STARLINK-2707           
1 48669U 21044AH  23327.13560439  .00006557  00000+0  45857-3 0  9996
2 48669  53.0540 271.5462 0001688 109.6172 250.5000 15.06409456137607
STARLINK-2763           
1 48670U 21044AJ  23327.13192626  .00006310  00000+0  44217-3 0  9993
2 48670  53.0534 271.5612 0001797  86.2216 273.8979 15.06397173137604
STARLINK-2745           
1 48671U 21044AK  23327.12728449  .00002666  00000+0  19778-3 0  9995
2 48671  53.0544 271.5728 0001686 115.0240 245.0924 15.06406696137601
STARLINK-2705           
1 48672U 21044AL  23327.12454151  .00002820  00000+0  20813-3 0  9996
2 48672  53.0542 271.5950 0001556  98.3572 261.7593 15.06402484137602
STARLINK-2711           
1 48673U 21044AM  23327.25355433  .00003609  00000+0  26105-3 0  9990
2 48673  53.0533 271.0157 0001667  82.7510 277.3669 15.06401273137623
STARLINK-2712           
1 48674U 21044AN  23327.12824314  .00007055  00000+0  49195-3 0  9999
2 48674  53.0532 271.6955 0001363 100.0289 260.0854 15.06406284137605
STARLINK-2737           
1 48675U 21044AP  23327.11348506  .00006910  00000+0  48236-3 0  9997
2 48675  53.0550 271.6449 0001761 123.6775 236.4382 15.06399922137600
STARLINK-2746           
1 48676U 21044AQ  23327.17614803  .00006983  00000+0  48727-3 0  9995
2 48676  53.0539 271.3646 0001541  82.8043 277.3121 15.06395408137615
STARLINK-2719           
1 48677U 21044AR  23327.17150961  .00003783  00000+0  27273-3 0  9994
2 48677  53.0525 271.3772 0001583 113.0512 247.0643 15.06398893137619
STARLINK-2615           
1 48678U 21044AS  23327.23512681  .00001882  00000+0  14525-3 0  9997
2 48678  53.0536 271.1008 0001528  80.1085 280.0076 15.06382573137626
STARLINK-2648           
1 48679U 21044AT  23327.23143820 -.00001819  00000+0 -10328-3 0  9992
2 48679  53.0541 271.1164 0001700  81.6733 278.4449 15.06391384137629
STARLINK-2649           
1 48680U 21044AU  23327.22774735  .00004694  00000+0  33386-3 0  9999
2 48680  53.0537 271.1311 0001160  92.5910 267.5211 15.06396965137624
STARLINK-2725           
1 48681U 21044AV  23327.09417220  .00021731  00000+0  14746-2 0  9997
2 48681  53.0533 241.9763 0001788  70.5617 289.5565 15.06365883138018
STARLINK-2743           
1 48682U 21044AW  23326.95869495  .00021887  00000+0  14840-2 0  9994
2 48682  53.0540 232.5041 0001661 112.1054 248.0111 15.06391966138131
STARLINK-2756           
1 48683U 21044AX  23327.11348845  .00014120  00000+0  96525-3 0  9998
2 48683  53.0530 231.6572 0001548  69.9149 290.2007 15.06388208138169
STARLINK-2741           
1 48684U 21044AY  23327.79958406  .00010591  00000+0  72902-3 0  9994
2 48684  53.0548 243.9238 0001820  98.8799 261.2397 15.06391158138954
STARLINK-2751           
1 48685U 21044AZ  23327.01765858  .00008726  00000+0  60371-3 0  9991
2 48685  53.0532 232.1213 0001678  84.2376 275.8804 15.06417080138151
STARLINK-2629           
1 48686U 21044BA  23327.74152175  .00008769  00000+0  60696-3 0  9991
2 48686  53.0544 234.1138 0001893  70.2134 289.9059 15.06394398139086
STARLINK-2627           
1 48687U 21044BB  23327.11947678  .00003006  00000+0  22062-3 0  9997
2 48687  53.0533 226.6186 0001304  93.8066 266.3072 15.06398737138237
STARLINK-2742           
1 48688U 21044BC  23327.72028909 -.00000510  00000+0 -15320-4 0  9991
2 48688  53.0554 223.9166 0002284 129.9681 230.1509 15.06390290139164
STARLINK-2617           
1 48689U 21044BD  23327.12823137  .00002286  00000+0  17238-3 0  9991
2 48689  53.0535 231.5492 0001397  93.6655 266.4494 15.06380278138162
STARLINK-2740           
1 48690U 21044BE  23327.79814402  .00003997  00000+0  28708-3 0  9995
2 48690  53.0542 238.5687 0001698  96.7284 263.3898 15.06401750139020
STARLINK-2750           
1 48691U 21044BF  23327.77096547  .00013475  00000+0  92265-3 0  9997
2 48691  53.0537 233.6900 0001216 119.7281 240.3829 15.06365138139037
STARLINK-2752           
1 48692U 21044BG  23327.02641792  .00001707  00000+0  13347-3 0  9993
2 48692  53.0537 237.1611 0001759 108.3622 251.7558 15.06399688138087
STARLINK-2618           
1 48693U 21044BH  23327.03421634  .00009834  00000+0  67796-3 0  9992
2 48693  53.0536 241.9997 0001654 114.6706 245.4455 15.06409330138019
STARLINK-2748           
1 48694U 21044BJ  23327.79859141  .00001691  00000+0  13244-3 0  9996
2 48694  53.0549 243.5618 0001889 108.4589 251.6606 15.06389155138897
STARLINK-2616           
1 48695U 21044BK  23327.09183396  .00016832  00000+0  11465-2 0  9997
2 48695  53.0536 246.7922 0001406 111.5785 248.5353 15.06390459137954
STARLINK-2753           
1 48696U 21044BL  23327.81198418  .00040010  00000+0  26912-2 0  9997
2 48696  53.0549 248.5547 0002245 115.0245 245.0978 15.06379113138831
STARLINK-2715           
1 48697U 21044BM  23327.02573164  .00058715  00000+0  34553-2 0  9997
2 48697  53.0529 251.1441 0006496 114.7702 245.3965 15.11084193137889
STARLINK-3003           
1 48879U 21059A   23327.80396696 -.00000803  00000+0 -57948-4 0  9996
2 48879  97.6601  89.9178 0001762  90.6443 269.4983 15.01249655133232
STARLINK-3004           
1 48880U 21059B   23327.80179155 -.00000628  00000+0 -44283-4 0  9990
2 48880  97.6601  89.8953 0001652 110.1260 250.0142 15.01257456133238
STARLINK-3005           
1 48881U 21059C   23327.32856223 -.00000133  00000+0 -57974-5 0  9999
2 48881  97.6589  89.3774 0001211  77.7398 282.3962 15.01259833133173
STARLINK-3096           
1 49131U 21082B   23327.78965357 -.00000960  00000+0 -72704-4 0  9998
2 49131  70.0014 204.5712 0002182 253.6723 106.4196 14.98336556121601
STARLINK-3090           
1 49132U 21082C   23327.82783879  .00003078  00000+0  26575-3 0  9996
2 49132  70.0009 244.5020 0002433 261.3379  98.7505 14.98318677120626
STARLINK-3077           
1 49133U 21082D   23327.81932356 -.00000869  00000+0 -65025-4 0  9993
2 49133  70.0001 244.5003 0002581 270.9990  89.0873 14.98321978120628
STARLINK-3078           
1 49134U 21082E   23327.81515053  .00000029  00000+0  10232-4 0  9991
2 49134  70.0037 244.5202 0002529 277.4687  82.6185 14.98323748121821
STARLINK-3073           
1 49135U 21082F   23327.78548104 -.00000663  00000+0 -47754-4 0  9996
2 49135  69.9992 204.5704 0002604 268.6333  91.4528 14.98321156121613
STARLINK-3084           
1 49136U 21082G   23327.78153412 -.00000323  00000+0 -19318-4 0  9999
2 49136  70.0050 224.5985 0001961 243.8566 116.2392 14.98334810121125
STARLINK-3055           
1 49137U 21082H   23327.84413338 -.00000594  00000+0 -42015-4 0  9993
2 49137  69.9998 224.4374 0002815 274.7022  85.3816 14.98314567121128
STARLINK-3058           
1 49138U 21082J   23327.81097818  .00000389  00000+0  40381-4 0  9996
2 49138  70.0011 244.5301 0002128 249.4081 110.6850 14.98325178120626
STARLINK-3057           
1 49139U 21082K   23327.84389467  .00000075  00000+0  14059-4 0  9999
2 49139  70.0008 204.4319 0002131 228.2090 131.8888 14.98321649121611
STARLINK-3118           
1 49140U 21082L   23327.83555077 -.00001608  00000+0 -12699-3 0  9994
2 49140  69.9989 204.4577 0002616 267.0512  93.0348 14.98324180121615
STARLINK-3093           
1 49141U 21082M   23327.20596563  .00003087  00000+0  26644-3 0  9997
2 49141  70.0008 246.0607 0002212 251.1198 108.9722 14.98317760121734
STARLINK-3042           
1 49142U 21082N   23327.09701021  .00006396  00000+0  54352-3 0  9995
2 49142  69.9996 206.3225 0002273 260.8685  99.2217 14.98318288121500
STARLINK-3109           
1 49143U 21082P   23327.83995741 -.00000287  00000+0 -16252-4 0  9995
2 49143  70.0004 224.4528 0002692 270.7317  89.3534 14.98320723121114
STARLINK-3100           
